{"type": "FeatureCollection", "features": [ {"type": "Feature", "properties": {"norad_id": 41335, "name": "SENTINEL-3A", "group": "resource", "lat": -61.203182836958206, "lon": -153.1396588396552, "alt_km": 810.4088612182823, "timestamp": "2025-12-03T17:47:50.369431+00:00", "meta": {"OBJECT_NAME": "SENTINEL-3A", "OBJECT_ID": "2016-011A", "EPOCH": "2025-12-03T11:36:55.831392", "MEAN_MOTION": 14.26740773, "ECCENTRICITY": 9.94e-05, "INCLINATION": 98.622, "RA_OF_ASC_NODE": 42.6297, "ARG_OF_PERICENTER": 91.2608, "MEAN_ANOMALY": 268.8686, "EPHEMERIS_TYPE": 0, "CLASSIFICATION_TYPE": "U", "NORAD_CAT_ID": 41335, "ELEMENT_SET_NO": 999, "REV_AT_EPOCH": 51015, "BSTAR": 0.00011753, "MEAN_MOTION_DOT": 2.41e-06, "MEAN_MOTION_DDOT": 0}, "tle": {"line1": "1 41335U 16011A   25337.48397953  .00000241  00000+0  11753-3 0  9999", "line2": "2 41335  98.6220  42.6297 0000994  91.2608 268.8686 14.26740773510150"}}, "geometry": {"type": "Point", "coordinates": [-153.1396588396552, -61.203182836958206]}}, {"type": "Feature", "properties": {"norad_id": 41556, "name": "ZIYUAN 3-2 (ZY 3-2)", "group": "resource", "lat": 7.108796995668095, "lon": -127.01355017666162, "alt_km": 507.2117605379144, "timestamp": "2025-12-03T17:47:50.369442+00:00", "meta": {"OBJECT_NAME": "ZIYUAN 3-2 (ZY 3-2)", "OBJECT_ID": "2016-033A", "EPOCH": "2025-12-03T12:18:12.528000", "MEAN_MOTION": 15.21286148, "ECCENTRICITY": 0.0012433, "INCLINATION": 97.4061, "RA_OF_ASC_NODE": 51.8318, "ARG_OF_PERICENTER": 285.1683, "MEAN_ANOMALY": 74.8177, "EPHEMERIS_TYPE": 0, "CLASSIFICATION_TYPE": "U", "NORAD_CAT_ID": 41556, "ELEMENT_SET_NO": 999, "REV_AT_EPOCH": 52823, "BSTAR": 0.00045133, "MEAN_MOTION_DOT": 0.00010048, "MEAN_MOTION_DDOT": 0}, "tle": {"line1": "1 41556U 16033A   25337.51264500  .00010048  00000+0  45133-3 0  9998", "line2": "2 41556  97.4061  51.8318 0012433 285.1683  74.8177 15.21286148528234"}}, "geometry": {"type": "Point", "coordinates": [-127.01355017666162, 7.108796995668095]}}, {"type": "Feature", "properties": {"norad_id": 41599, "name": "CARTOSAT-2C", "group": "resource", "lat": -7.267216269992269, "lon": -145.87575443065566, "alt_km": 513.0522284625531, "timestamp": "2025-12-03T17:47:50.369452+00:00", "meta": {"OBJECT_NAME": "CARTOSAT-2C", "OBJECT_ID": "2016-040A", "EPOCH": "2025-12-03T12:14:03.716736", "MEAN_MOTION": 15.19141996, "ECCENTRICITY": 0.0011001, "INCLINATION": 97.4781, "RA_OF_ASC_NODE": 34.8546, "ARG_OF_PERICENTER": 93.1183, "MEAN_ANOMALY": 267.131, "EPHEMERIS_TYPE": 0, "CLASSIFICATION_TYPE": "U", "NORAD_CAT_ID": 41599, "ELEMENT_SET_NO": 999, "REV_AT_EPOCH": 52400, "BSTAR": 3.3728e-05, "MEAN_MOTION_DOT": 6.41e-06, "MEAN_MOTION_DDOT": 0}, "tle": {"line1": "1 41599U 16040A   25337.50976524  .00000641  00000+0  33728-4 0  9994", "line2": "2 41599  97.4781  34.8546 0011001  93.1183 267.1310 15.19141996524001"}}, "geometry": {"type": "Point", "coordinates": [-145.87575443065566, -7.267216269992269]}}, {"type": "Feature", "properties": {"norad_id": 41601, "name": "SKYSAT-C1", "group": "resource", "lat": 5.368913246412841, "lon": -164.07549529841177, "alt_km": 472.9296601700162, "timestamp": "2025-12-03T17:47:50.369463+00:00", "meta": {"OBJECT_NAME": "SKYSAT-C1", "OBJECT_ID": "2016-040C", "EPOCH": "2025-12-03T01:21:56.872800", "MEAN_MOTION": 15.3231257, "ECCENTRICITY": 0.00033351, "INCLINATION": 96.984, "RA_OF_ASC_NODE": 14.6184, "ARG_OF_PERICENTER": 39.7719, "MEAN_ANOMALY": 320.3768, "EPHEMERIS_TYPE": 0, "CLASSIFICATION_TYPE": "U", "NORAD_CAT_ID": 41601, "ELEMENT_SET_NO": 999, "REV_AT_EPOCH": 52779, "BSTAR": 0.00041279852, "MEAN_MOTION_DOT": 0.00012816, "MEAN_MOTION_DDOT": 0}, "tle": {"line1": "1 41601U 16040C   25337.05690825  .00012816  00000+0  41280-3 0  9993", "line2": "2 41601  96.9840  14.6184 0003335  39.7719 320.3768 15.32312570527792"}}, "geometry": {"type": "Point", "coordinates": [-164.07549529841177, 5.368913246412841]}}, {"type": "Feature", "properties": {"norad_id": 41603, "name": "LAPAN-A3", "group": "resource", "lat": -10.662942608616477, "lon": -23.020769852128172, "alt_km": 468.83889124865345, "timestamp": "2025-12-03T17:47:50.369474+00:00", "meta": {"OBJECT_NAME": "LAPAN-A3", "OBJECT_ID": "2016-040E", "EPOCH": "2025-12-03T13:08:22.293600", "MEAN_MOTION": 15.31435983, "ECCENTRICITY": 0.0010829, "INCLINATION": 97.1422, "RA_OF_ASC_NODE": 335.4394, "ARG_OF_PERICENTER": 7.7511, "MEAN_ANOMALY": 352.3896, "EPHEMERIS_TYPE": 0, "CLASSIFICATION_TYPE": "U", "NORAD_CAT_ID": 41603, "ELEMENT_SET_NO": 999, "REV_AT_EPOCH": 52485, "BSTAR": 0.00018383, "MEAN_MOTION_DOT": 5.516e-05, "MEAN_MOTION_DDOT": 0}, "tle": {"line1": "1 41603U 16040E   25337.54748025  .00005516  00000+0  18383-3 0  9992", "line2": "2 41603  97.1422 335.4394 0010829   7.7511 352.3896 15.31435983524855"}}, "geometry": {"type": "Point", "coordinates": [-23.020769852128172, -10.662942608616477]}}, {"type": "Feature", "properties": {"norad_id": 41604, "name": "BIROS", "group": "resource", "lat": 29.30298374685359, "lon": -167.1661656725654, "alt_km": 310.6770611687716, "timestamp": "2025-12-03T17:47:50.369484+00:00", "meta": {"OBJECT_NAME": "BIROS", "OBJECT_ID": "2016-040F", "EPOCH": "2025-12-03T08:04:45.191424", "MEAN_MOTION": 15.85840463, "ECCENTRICITY": 0.0002641, "INCLINATION": 97.0708, "RA_OF_ASC_NODE": 8.4199, "ARG_OF_PERICENTER": 174.4509, "MEAN_ANOMALY": 185.6792, "EPHEMERIS_TYPE": 0, "CLASSIFICATION_TYPE": "U", "NORAD_CAT_ID": 41604, "ELEMENT_SET_NO": 999, "REV_AT_EPOCH": 52723, "BSTAR": 0.00068583, "MEAN_MOTION_DOT": 0.00169306, "MEAN_MOTION_DDOT": 0}, "tle": {"line1": "1 41604U 16040F   25337.33663416  .00169306  00000+0  68583-3 0  9995", "line2": "2 41604  97.0708   8.4199 0002641 174.4509 185.6792 15.85840463527233"}}, "geometry": {"type": "Point", "coordinates": [-167.1661656725654, 29.30298374685359]}}, {"type": "Feature", "properties": {"norad_id": 41727, "name": "GAOFEN-3", "group": "resource", "lat": 45.45004841436029, "lon": 172.1022275597149, "alt_km": 746.7200164539336, "timestamp": "2025-12-03T17:47:50.369494+00:00", "meta": {"OBJECT_NAME": "GAOFEN-3", "OBJECT_ID": "2016-049A", "EPOCH": "2025-12-03T12:11:01.550976", "MEAN_MOTION": 14.4220964, "ECCENTRICITY": 0.0001591, "INCLINATION": 98.4041, "RA_OF_ASC_NODE": 343.2347, "ARG_OF_PERICENTER": 73.2029, "MEAN_ANOMALY": 286.9335, "EPHEMERIS_TYPE": 0, "CLASSIFICATION_TYPE": "U", "NORAD_CAT_ID": 41727, "ELEMENT_SET_NO": 999, "REV_AT_EPOCH": 49044, "BSTAR": 4.0708e-06, "MEAN_MOTION_DOT": -3e-07, "MEAN_MOTION_DDOT": 0}, "tle": {"line1": "1 41727U 16049A   25337.50765684 -.00000030  00000+0  40708-5 0  9999", "line2": "2 41727  98.4041 343.2347 0001591  73.2029 286.9335 14.42209640490443"}}, "geometry": {"type": "Point", "coordinates": [172.1022275597149, 45.45004841436029]}}, {"type": "Feature", "properties": {"norad_id": 41771, "name": "SKYSAT-C4", "group": "resource", "lat": 20.220913641536374, "lon": -174.059172803354, "alt_km": 440.4790340558757, "timestamp": "2025-12-03T17:47:50.369505+00:00", "meta": {"OBJECT_NAME": "SKYSAT-C4", "OBJECT_ID": "2016-058B", "EPOCH": "2025-12-03T07:45:43.626240", "MEAN_MOTION": 15.41830666, "ECCENTRICITY": 7.25e-05, "INCLINATION": 96.9384, "RA_OF_ASC_NODE": 2.9722, "ARG_OF_PERICENTER": 115.0599, "MEAN_ANOMALY": 245.0725, "EPHEMERIS_TYPE": 0, "CLASSIFICATION_TYPE": "U", "NORAD_CAT_ID": 41771, "ELEMENT_SET_NO": 999, "REV_AT_EPOCH": 51522, "BSTAR": 0.00043667, "MEAN_MOTION_DOT": 0.00018449, "MEAN_MOTION_DDOT": 0}, "tle": {"line1": "1 41771U 16058B   25337.32342160  .00018449  00000+0  43667-3 0  9995", "line2": "2 41771  96.9384   2.9722 0000725 115.0599 245.0725 15.41830666515227"}}, "geometry": {"type": "Point", "coordinates": [-174.059172803354, 20.220913641536374]}}, {"type": "Feature", "properties": {"norad_id": 41772, "name": "SKYSAT-C5", "group": "resource", "lat": -67.623776758998, "lon": 39.41793909894676, "alt_km": 468.5987967263318, "timestamp": "2025-12-03T17:47:50.369516+00:00", "meta": {"OBJECT_NAME": "SKYSAT-C5", "OBJECT_ID": "2016-058C", "EPOCH": "2025-12-03T02:27:18.996480", "MEAN_MOTION": 15.35381437, "ECCENTRICITY": 0.00026906, "INCLINATION": 97.0777, "RA_OF_ASC_NODE": 21.2377, "ARG_OF_PERICENTER": 130.7295, "MEAN_ANOMALY": 229.4184, "EPHEMERIS_TYPE": 0, "CLASSIFICATION_TYPE": "U", "NORAD_CAT_ID": 41772, "ELEMENT_SET_NO": 999, "REV_AT_EPOCH": 51368, "BSTAR": 0.0018731044, "MEAN_MOTION_DOT": 0.00064768, "MEAN_MOTION_DDOT": 0}, "tle": {"line1": "1 41772U 16058C   25337.10230320  .00064768  00000+0  18731-2 0  9994", "line2": "2 41772  97.0777  21.2377 0002690 130.7295 229.4184 15.35381437513689"}}, "geometry": {"type": "Point", "coordinates": [39.41793909894676, -67.623776758998]}}, {"type": "Feature", "properties": {"norad_id": 41773, "name": "SKYSAT-C2", "group": "resource", "lat": -63.09467697921829, "lon": 168.56294539691865, "alt_km": 465.8308404983054, "timestamp": "2025-12-03T17:47:50.369526+00:00", "meta": {"OBJECT_NAME": "SKYSAT-C2", "OBJECT_ID": "2016-058D", "EPOCH": "2025-12-03T01:06:49.369536", "MEAN_MOTION": 15.36929314, "ECCENTRICITY": 0.00051007, "INCLINATION": 97.0371, "RA_OF_ASC_NODE": 1.9867, "ARG_OF_PERICENTER": 58.7522, "MEAN_ANOMALY": 301.4222, "EPHEMERIS_TYPE": 0, "CLASSIFICATION_TYPE": "U", "NORAD_CAT_ID": 41773, "ELEMENT_SET_NO": 999, "REV_AT_EPOCH": 51487, "BSTAR": 0.00040683044, "MEAN_MOTION_DOT": 0.00014631, "MEAN_MOTION_DDOT": 0}, "tle": {"line1": "1 41773U 16058D   25337.04640474  .00014631  00000+0  40683-3 0  9999", "line2": "2 41773  97.0371   1.9867 0005100  58.7522 301.4222 15.36929314514879"}}, "geometry": {"type": "Point", "coordinates": [168.56294539691865, -63.09467697921829]}}]}